NUSAT-26 (M SOMERVILLE) 
1 52184U 22033AD  26191.85305412  .00014077  00000+0  31945-3 0  9990
2 52184  97.2342 270.7622 0006788 150.0758 210.0879 15.43138587108359
NUSAT-33 (ALBANIA-2)    
1 55047U 23001AQ  26191.85084872  .00006159  00000+0  22657-3 0  9993
2 55047  97.3065 252.3039 0005165 334.3722  25.7261 15.28217531195922
NUSAT-35 (WILLIAMINA)   
1 55048U 23001AR  26191.82134146  .00009228  00000+0  26709-3 0  9993
2 55048  97.1846 243.9770 0010989  25.7207 334.4581 15.35750639196032
NUSAT-39 (TIKVAH ALPER) 
1 56201U 23054Z   26191.84492073  .00018572  00000+0  35848-3 0  9997
2 56201  97.3101 101.8321 0002558 347.4082  12.7104 15.47861052182118
NUSAT-38 (MARIA AGNESI) 
1 56202U 23054AA  26191.84861358  .00023675  00000+0  40791-3 0  9997
2 56202  97.3038 102.5543 0009517 345.6671  14.4309 15.51012170182174
NUSAT-37 (JOAN CLARKE)  
1 56203U 23054AB  26191.86585169  .00032223  00000+0  40920-3 0  9996
2 56203  97.2610  99.4220 0007287 156.1723 203.9872 15.59324965182335
NUSAT-40 (C SHOEMAKER)  
1 56943U 23084M   26192.11222243  .00102159  00000+0  50958-3 0  9998
2 56943  97.4853 340.6146 0004293 194.9070 165.2072 15.81573951172588
NUSAT-41 (C PAYNE-G)    
1 56944U 23084N   26191.80088186  .00007499  00000+0  26004-3 0  9996
2 56944  97.5536 328.8960 0006129 228.2493 131.8223 15.30095486171391
NUSAT-42 (M WONENBURGER)
1 56966U 23084AL  26191.85693975  .00014271  00000+0  29028-3 0  9998
2 56966  97.5736 336.9798 0006535 160.0562 200.0944 15.46385434171736
NUSAT-44 (MARIA MITCHE*)
1 59122U 24043AA  26191.82122697  .00006844  00000+0  23979-3 0  9992
2 59122  97.5469 332.4462 0006238 144.2174 215.9485 15.29793771130882
NUSAT-50 (NANCY ROMAN)  
1 60493U 24149AB  26191.18899609  .00006833  00000+0  23592-3 0  9994
2 60493  97.3785 272.2892 0004801 113.5193 246.6553 15.30262915105642
NUSAT-48 (HENRIETTA LE*)
1 60498U 24149AG  26191.17786951  .00006755  00000+0  23361-3 0  9990
2 60498  97.3914 272.5613 0004333 173.6918 186.4378 15.30220707105657
NUSAT-49 (KLARA DAN VO*)
1 60500U 24149AJ  26189.78137068  .00006275  00000+0  21664-3 0  9998
2 60500  97.3775 270.9235 0001819 182.0121 178.1113 15.30310950105435
NUSAT-45 (UZMASAT-1)    
1 62640U 25009AH  26191.47047937  .00006118  00000+0  21113-3 0  9990
2 62640  97.3591 272.4615 0001361 193.4430 166.6775 15.30330959 82484
NUSAT-52                
1 66692U 25276AC  26191.45418383  .00003307  00000+0  15670-3 0  9990
2 66692  97.4202 264.6176 0001741 312.1357  47.9730 15.20008854 33955
NUSAT-51 (YVONNE BRILL) 
1 66740U 25276CC  26191.58861385  .00003801  00000+0  17690-3 0  9995
2 66740  97.4206 264.8888 0001575 266.2564  93.8491 15.20533366 33987
