{"fetched_at":"2026-07-11T06:35:37.844Z","source":"https://celestrak.org/NORAD/elements/gp.php?NAME=NUSAT&FORMAT=JSON","constellation":"satellogic","records":[{"OBJECT_NAME":"NUSAT-26 (M SOMERVILLE)","OBJECT_ID":"2022-033AD","EPOCH":"2026-07-10T20:28:23.875968","CLASSIFICATION_TYPE":"U","MEAN_MOTION":15.43138587,"ECCENTRICITY":0.0006788,"INCLINATION":97.2342,"RA_OF_ASC_NODE":270.7622,"ARG_OF_PERICENTER":150.0758,"MEAN_ANOMALY":210.0879,"EPHEMERIS_TYPE":0,"NORAD_CAT_ID":52184,"ELEMENT_SET_NO":999,"REV_AT_EPOCH":10835,"BSTAR":0.00031945,"MEAN_MOTION_DOT":0.00014077,"MEAN_MOTION_DDOT":0},{"OBJECT_NAME":"NUSAT-33 (ALBANIA-2)","OBJECT_ID":"2023-001AQ","EPOCH":"2026-07-10T20:25:13.329408","CLASSIFICATION_TYPE":"U","MEAN_MOTION":15.28217531,"ECCENTRICITY":0.0005165,"INCLINATION":97.3065,"RA_OF_ASC_NODE":252.3039,"ARG_OF_PERICENTER":334.3722,"MEAN_ANOMALY":25.7261,"EPHEMERIS_TYPE":0,"NORAD_CAT_ID":55047,"ELEMENT_SET_NO":999,"REV_AT_EPOCH":19592,"BSTAR":0.00022657,"MEAN_MOTION_DOT":0.00006159,"MEAN_MOTION_DDOT":0},{"OBJECT_NAME":"NUSAT-35 (WILLIAMINA)","OBJECT_ID":"2023-001AR","EPOCH":"2026-07-10T19:42:43.902144","CLASSIFICATION_TYPE":"U","MEAN_MOTION":15.35750639,"ECCENTRICITY":0.0010989,"INCLINATION":97.1846,"RA_OF_ASC_NODE":243.977,"ARG_OF_PERICENTER":25.7207,"MEAN_ANOMALY":334.4581,"EPHEMERIS_TYPE":0,"NORAD_CAT_ID":55048,"ELEMENT_SET_NO":999,"REV_AT_EPOCH":19603,"BSTAR":0.00026709,"MEAN_MOTION_DOT":0.00009228,"MEAN_MOTION_DDOT":0},{"OBJECT_NAME":"NUSAT-39 (TIKVAH ALPER)","OBJECT_ID":"2023-054Z","EPOCH":"2026-07-10T20:16:41.151072","CLASSIFICATION_TYPE":"U","MEAN_MOTION":15.47861052,"ECCENTRICITY":0.0002558,"INCLINATION":97.3101,"RA_OF_ASC_NODE":101.8321,"ARG_OF_PERICENTER":347.4082,"MEAN_ANOMALY":12.7104,"EPHEMERIS_TYPE":0,"NORAD_CAT_ID":56201,"ELEMENT_SET_NO":999,"REV_AT_EPOCH":18211,"BSTAR":0.00035848,"MEAN_MOTION_DOT":0.00018572,"MEAN_MOTION_DDOT":0},{"OBJECT_NAME":"NUSAT-38 (MARIA AGNESI)","OBJECT_ID":"2023-054AA","EPOCH":"2026-07-10T20:22:00.213312","CLASSIFICATION_TYPE":"U","MEAN_MOTION":15.5101217,"ECCENTRICITY":0.0009517,"INCLINATION":97.3038,"RA_OF_ASC_NODE":102.5543,"ARG_OF_PERICENTER":345.6671,"MEAN_ANOMALY":14.4309,"EPHEMERIS_TYPE":0,"NORAD_CAT_ID":56202,"ELEMENT_SET_NO":999,"REV_AT_EPOCH":18217,"BSTAR":0.00040791,"MEAN_MOTION_DOT":0.00023675,"MEAN_MOTION_DDOT":0},{"OBJECT_NAME":"NUSAT-37 (JOAN CLARKE)","OBJECT_ID":"2023-054AB","EPOCH":"2026-07-10T20:46:49.586016","CLASSIFICATION_TYPE":"U","MEAN_MOTION":15.59324965,"ECCENTRICITY":0.0007287,"INCLINATION":97.261,"RA_OF_ASC_NODE":99.422,"ARG_OF_PERICENTER":156.1723,"MEAN_ANOMALY":203.9872,"EPHEMERIS_TYPE":0,"NORAD_CAT_ID":56203,"ELEMENT_SET_NO":999,"REV_AT_EPOCH":18233,"BSTAR":0.0004092,"MEAN_MOTION_DOT":0.00032223,"MEAN_MOTION_DDOT":0},{"OBJECT_NAME":"NUSAT-40 (C SHOEMAKER)","OBJECT_ID":"2023-084M","EPOCH":"2026-07-11T02:41:36.017952","CLASSIFICATION_TYPE":"U","MEAN_MOTION":15.81573951,"ECCENTRICITY":0.0004293,"INCLINATION":97.4853,"RA_OF_ASC_NODE":340.6146,"ARG_OF_PERICENTER":194.907,"MEAN_ANOMALY":165.2072,"EPHEMERIS_TYPE":0,"NORAD_CAT_ID":56943,"ELEMENT_SET_NO":999,"REV_AT_EPOCH":17258,"BSTAR":0.00050958,"MEAN_MOTION_DOT":0.00102159,"MEAN_MOTION_DDOT":0},{"OBJECT_NAME":"NUSAT-41 (C PAYNE-G)","OBJECT_ID":"2023-084N","EPOCH":"2026-07-10T19:13:16.192704","CLASSIFICATION_TYPE":"U","MEAN_MOTION":15.30095486,"ECCENTRICITY":0.0006129,"INCLINATION":97.5536,"RA_OF_ASC_NODE":328.896,"ARG_OF_PERICENTER":228.2493,"MEAN_ANOMALY":131.8223,"EPHEMERIS_TYPE":0,"NORAD_CAT_ID":56944,"ELEMENT_SET_NO":999,"REV_AT_EPOCH":17139,"BSTAR":0.00026004,"MEAN_MOTION_DOT":0.00007499,"MEAN_MOTION_DDOT":0},{"OBJECT_NAME":"NUSAT-42 (M WONENBURGER)","OBJECT_ID":"2023-084AL","EPOCH":"2026-07-10T20:33:59.594400","CLASSIFICATION_TYPE":"U","MEAN_MOTION":15.46385434,"ECCENTRICITY":0.0006535,"INCLINATION":97.5736,"RA_OF_ASC_NODE":336.9798,"ARG_OF_PERICENTER":160.0562,"MEAN_ANOMALY":200.0944,"EPHEMERIS_TYPE":0,"NORAD_CAT_ID":56966,"ELEMENT_SET_NO":999,"REV_AT_EPOCH":17173,"BSTAR":0.00029028,"MEAN_MOTION_DOT":0.00014271,"MEAN_MOTION_DDOT":0},{"OBJECT_NAME":"NUSAT-44 (MARIA MITCHELL)","OBJECT_ID":"2024-043AA","EPOCH":"2026-07-10T19:42:34.010208","CLASSIFICATION_TYPE":"U","MEAN_MOTION":15.29793771,"ECCENTRICITY":0.0006238,"INCLINATION":97.5469,"RA_OF_ASC_NODE":332.4462,"ARG_OF_PERICENTER":144.2174,"MEAN_ANOMALY":215.9485,"EPHEMERIS_TYPE":0,"NORAD_CAT_ID":59122,"ELEMENT_SET_NO":999,"REV_AT_EPOCH":13088,"BSTAR":0.00023979,"MEAN_MOTION_DOT":0.00006844,"MEAN_MOTION_DDOT":0},{"OBJECT_NAME":"NUSAT-50 (NANCY ROMAN)","OBJECT_ID":"2024-149AB","EPOCH":"2026-07-10T04:32:09.262176","CLASSIFICATION_TYPE":"U","MEAN_MOTION":15.30262915,"ECCENTRICITY":0.00048011,"INCLINATION":97.3785,"RA_OF_ASC_NODE":272.2892,"ARG_OF_PERICENTER":113.5193,"MEAN_ANOMALY":246.6553,"EPHEMERIS_TYPE":0,"NORAD_CAT_ID":60493,"ELEMENT_SET_NO":999,"REV_AT_EPOCH":10564,"BSTAR":0.00023592323,"MEAN_MOTION_DOT":0.00006833,"MEAN_MOTION_DDOT":0},{"OBJECT_NAME":"NUSAT-48 (HENRIETTA LEAVITT)","OBJECT_ID":"2024-149AG","EPOCH":"2026-07-10T04:16:07.925664","CLASSIFICATION_TYPE":"U","MEAN_MOTION":15.30220707,"ECCENTRICITY":0.00043336,"INCLINATION":97.3914,"RA_OF_ASC_NODE":272.5613,"ARG_OF_PERICENTER":173.6918,"MEAN_ANOMALY":186.4378,"EPHEMERIS_TYPE":0,"NORAD_CAT_ID":60498,"ELEMENT_SET_NO":999,"REV_AT_EPOCH":10565,"BSTAR":0.00023360515,"MEAN_MOTION_DOT":0.00006755,"MEAN_MOTION_DDOT":0},{"OBJECT_NAME":"NUSAT-49 (KLARA DAN VON NEUMANN)","OBJECT_ID":"2024-149AJ","EPOCH":"2026-07-08T18:45:10.426752","CLASSIFICATION_TYPE":"U","MEAN_MOTION":15.3031095,"ECCENTRICITY":0.00018193,"INCLINATION":97.3775,"RA_OF_ASC_NODE":270.9235,"ARG_OF_PERICENTER":182.0121,"MEAN_ANOMALY":178.1113,"EPHEMERIS_TYPE":0,"NORAD_CAT_ID":60500,"ELEMENT_SET_NO":999,"REV_AT_EPOCH":10543,"BSTAR":0.00021663565,"MEAN_MOTION_DOT":0.00006275,"MEAN_MOTION_DDOT":0},{"OBJECT_NAME":"NUSAT-45 (UZMASAT-1)","OBJECT_ID":"2025-009AH","EPOCH":"2026-07-10T11:17:29.417568","CLASSIFICATION_TYPE":"U","MEAN_MOTION":15.30330959,"ECCENTRICITY":0.00013616,"INCLINATION":97.3591,"RA_OF_ASC_NODE":272.4615,"ARG_OF_PERICENTER":193.443,"MEAN_ANOMALY":166.6775,"EPHEMERIS_TYPE":0,"NORAD_CAT_ID":62640,"ELEMENT_SET_NO":999,"REV_AT_EPOCH":8248,"BSTAR":0.00021112664,"MEAN_MOTION_DOT":0.00006118,"MEAN_MOTION_DDOT":0},{"OBJECT_NAME":"NUSAT-52","OBJECT_ID":"2025-276AC","EPOCH":"2026-07-10T10:54:01.482912","CLASSIFICATION_TYPE":"U","MEAN_MOTION":15.20008854,"ECCENTRICITY":0.00017414,"INCLINATION":97.4202,"RA_OF_ASC_NODE":264.6176,"ARG_OF_PERICENTER":312.1357,"MEAN_ANOMALY":47.973,"EPHEMERIS_TYPE":0,"NORAD_CAT_ID":66692,"ELEMENT_SET_NO":999,"REV_AT_EPOCH":3395,"BSTAR":0.00015670293,"MEAN_MOTION_DOT":0.00003307,"MEAN_MOTION_DDOT":0},{"OBJECT_NAME":"NUSAT-51 (YVONNE BRILL)","OBJECT_ID":"2025-276CC","EPOCH":"2026-07-10T14:07:36.236640","CLASSIFICATION_TYPE":"U","MEAN_MOTION":15.20533366,"ECCENTRICITY":0.0001575,"INCLINATION":97.4206,"RA_OF_ASC_NODE":264.8888,"ARG_OF_PERICENTER":266.2564,"MEAN_ANOMALY":93.8491,"EPHEMERIS_TYPE":0,"NORAD_CAT_ID":66740,"ELEMENT_SET_NO":999,"REV_AT_EPOCH":3398,"BSTAR":0.0001769,"MEAN_MOTION_DOT":0.00003801,"MEAN_MOTION_DDOT":0}]}
